OSCAR 7 (AO-7)          
1 07530U 74089B   23029.88593194 -.00000023  00000+0  14630-3 0  9998
2 07530 101.9342  15.7013 0012142 329.4290  58.9542 12.53660637205844
PHASE 3B (AO-10)        
1 14129U 83058B   23028.09269023 -.00000178  00000+0  00000+0 0  9992
2 14129  26.8490  59.3434 6034100 143.3541 279.2134  2.05869782270038
UOSAT 2 (UO-11)         
1 14781U 84021B   23029.88840822  .00001649  00000+0  20309-3 0  9998
2 14781  97.6421  12.3647 0006841 303.6995  56.3567 14.84216059 73629
LUSAT (LO-19)           
1 20442U 90005G   23029.87165724  .00000211  00000+0  93807-4 0  9996
2 20442  98.8266   3.5702 0010962 220.5642 139.4725 14.33153373725535
EYESAT A (AO-27)        
1 22825U 93061C   23029.83472827  .00000104  00000+0  57759-4 0  9996
2 22825  98.8619  70.3602 0009446 109.9378 250.2822 14.30237274530518
ITAMSAT (IO-26)         
1 22826U 93061D   23029.59291846  .00000121  00000+0  64150-4 0  9992
2 22826  98.8566  69.9814 0010034  98.3340 261.8980 14.30590194530745
RADIO ROSTO (RS-15)     
1 23439U 94085A   23029.73403958 -.00000039  00000+0  10000-3 0  9998
2 23439  64.8143 139.6219 0166244 234.0207 124.5201 11.27573332157003
JAS-2 (FO-29)           
1 24278U 96046B   23029.55024612 -.00000008  00000+0  25687-4 0  9999
2 24278  98.5166  27.0810 0351159  56.6804 306.7446 13.53129421306438
TECHSAT 1B (GO-32)      
1 25397U 98043D   23029.85544899  .00000119  00000+0  71791-4 0  9997
2 25397  98.8499 346.2678 0001677 136.6721 223.4589 14.23812317275647
ISS (ZARYA)             
1 25544U 98067A   23030.03843750  .00016560  00000+0  29450-3 0  9998
2 25544  51.6434 292.8109 0004410 289.6232 258.6252 15.50286587380364
PCSAT (NO-44)           
1 26931U 01043C   23029.87218443  .00000232  00000+0  12001-3 0  9995
2 26931  67.0498 193.9352 0005713 281.6424  78.4036 14.30806038113794
SAUDISAT 1C (SO-50)     
1 27607U 02058C   23029.84045612  .00001314  00000+0  19822-3 0  9996
2 27607  64.5570 328.8953 0079027 251.5863 107.6636 14.76676949 81797
CUTE-1 (CO-55)          
1 27844U 03031E   23029.56233204  .00000384  00000+0  19112-3 0  9994
2 27844  98.6797  38.8504 0010158 161.5721 198.5827 14.22606325 16029
CUBESAT XI-IV (CO-57)   
1 27848U 03031J   23029.94885786  .00000308  00000+0  15862-3 0  9992
2 27848  98.6838  39.6949 0009782 174.7217 185.4066 14.22141642 15854
MOZHAYETS 4 (RS-22)     
1 27939U 03042A   23029.89866072  .00001632  00000+0  29449-3 0  9993
2 27939  98.2181 176.0541 0012279 208.9829 151.0692 14.67813199 34251
CUBESAT XI-V            
1 28895U 05043F   23029.79569297  .00001600  00000+0  30759-3 0  9997
2 28895  98.1314 163.1656 0017005 145.6280 214.6027 14.64923378920546
CUTE-1.7+APD II (CO-65) 
1 32785U 08021C   23029.73754492  .00003405  00000+0  35158-3 0  9999
2 32785  97.6885 358.9514 0011905 194.8723 165.2146 14.90765720800188
DELFI-C3 (DO-64)        
1 32789U 08021G   23029.62618095  .00024056  00000+0  10619-2 0  9998
2 32789  97.3214  53.4878 0006469 246.7330 113.3225 15.21728912806214
SEEDS II (CO-66)        
1 32791U 08021J   23029.45254685  .00004983  00000+0  46713-3 0  9995
2 32791  97.6395   3.9603 0013441 149.4362 210.7644 14.94390118800929
YUBILEINY (RS-30)       
1 32953U 08025A   23029.77567759  .00000024  00000+0  10000-3 0  9995
2 32953  82.5024  43.1789 0020446 124.7020 235.5992 12.43118238666454
KKS-1 (KISEKI)          
1 33499U 09002H   23029.83892392  .00001359  00000+0  20275-3 0  9995
2 33499  98.1910 280.2954 0008004 318.3489  41.7110 14.76490904753649
SWISSCUBE               
1 35932U 09051B   23029.86137293  .00001042  00000+0  24111-3 0  9990
2 35932  98.5406 256.8143 0008656  73.3975 286.8173 14.57259553709067
BEESAT-1                
1 35933U 09051C   23029.88559498  .00000902  00000+0  21032-3 0  9991
2 35933  98.5340 258.2961 0006900  84.2982 275.9002 14.57226966709149
ITUPSAT1                
1 35935U 09051E   23029.90570263  .00000822  00000+0  19652-3 0  9995
2 35935  98.5440 258.3091 0009201  88.0537 272.1714 14.56309209708837
XIWANG-1 (HOPE-1)       
1 36122U 09072B   23029.83677494 -.00000015  00000+0  72435-4 0  9997
2 36122 100.2181 358.1997 0007451 176.2107 183.9064 13.16377086630598
JUGNU                   
1 37839U 11058B   23029.90432216  .00000491  00000+0  11915-3 0  9991
2 37839  19.9595 241.8710 0018909 133.9362 253.5484 14.12867900584205
SRMSAT                  
1 37841U 11058D   23029.95252694  .00000462  00000+0  10893-3 0  9991
2 37841  19.9732 325.7595 0011708 312.6948 114.3499 14.10823168583261
M-CUBED & EXP-1 PRIME   
1 37855U 11061F   23029.93542759  .00012683  00000+0  48738-3 0  9999
2 37855 101.7106 275.2806 0138268 101.0083 260.6724 15.18202377615529
STRAND-1                
1 39090U 13009E   23029.50729808  .00000359  00000+0  13977-3 0  9995
2 39090  98.3916 226.6317 0008392 324.1017  35.9605 14.35431501519826
SOMP                    
1 39134U 13015E   23029.36865554  .00037060  00000+0  94568-3 0  9998
2 39134  64.8584  35.9928 0023599 254.3266 105.5267 15.39033064541470
BEESAT-3                
1 39135U 13015F   23029.85673610  .00020571  00000+0  67550-3 0  9993
2 39135  64.8634  77.1311 0030225 252.7116 107.0709 15.31180892540674
BEESAT-2                
1 39136U 13015G   23029.88806849  .00018666  00000+0  64899-3 0  9994
2 39136  64.8724  86.8116 0026277 289.6792  70.1504 15.29487646540459
ZACUBE-1 (TSHEPISOSAT)  
1 39417U 13066B   23029.83551788  .00003851  00000+0  46130-3 0  9994
2 39417  97.6674 356.6381 0057060  23.9410 336.4438 14.83495867496672
GOMX-1                  
1 39430U 13066Q   23029.81622556  .00002787  00000+0  49494-3 0  9992
2 39430  97.7959 288.9696 0148914  51.0755 310.3599 14.60919346489335
CUBEBUG-2 (LO-74)       
1 39440U 13066AA  23029.86712048  .00002526  00000+0  33909-3 0  9999
2 39440  97.7565 343.3993 0078874 116.2534 244.6810 14.78027262493719
FUNCUBE-1 (AO-73)       
1 39444U 13066AE  23029.87450958  .00004477  00000+0  51874-3 0  9991
2 39444  97.6543 359.1314 0055270  10.6596 349.5776 14.84847863495105
UWE-3                   
1 39446U 13066AG  23029.83298079  .00003119  00000+0  39662-3 0  9996
2 39446  97.7171 349.6363 0068935  71.5282 289.3407 14.80631983493945
SPROUT                  
1 39770U 14029E   23029.77891675  .00019347  00000+0  17572-2 0  9995
2 39770  97.9577 153.9523 0008627  51.7482 308.4210 14.95276299471420
UNISAT-6                
1 40012U 14033C   23029.92832641  .00002541  00000+0  36855-3 0  9990
2 40012  97.6621 210.9446 0057127 144.0562 216.4512 14.75753209463377
DUCHIFAT-1              
1 40021U 14033M   23029.82784367  .00006701  00000+0  61648-3 0  9990
2 40021  98.0405 349.7764 0012218  23.3021 336.8750 14.95048874468493
QB50P1                  
1 40025U 14033R   23029.81017880  .00003877  00000+0  38778-3 0  9991
2 40025  97.9828 334.4150 0012763  39.2999 320.9143 14.91984744467499
NUDT-PHONESAT           
1 40900U 15049B   23029.88976806  .00126863  00000+0  16429-2 0  9999
2 40900  97.3784  56.4074 0006329 159.8513 278.5081 15.58440468409549
ZDPS 2A                 
1 40901U 15049C   23029.74888035  .00020298  00000+0  67949-3 0  9990
2 40901  97.4554  43.2735 0007359 262.3733  97.6672 15.30962952407981
ZDPS 2B                 
1 40902U 15049D   23029.87362389  .00031109  00000+0  10201-2 0  9995
2 40902  97.4650  41.4596 0007261 258.8365 198.0312 15.31543976407986
XW-2A                   
1 40903U 15049E   23029.94640392  .00081321  00000+0  64737-3 0  9992
2 40903  97.1433  95.4155 0005954 358.1422 176.2645 15.70931372414561
KAITUO 1A               
1 40904U 15049F   23029.94959304  .00015658  00000+0  70147-3 0  9991
2 40904  97.4992  35.7596 0010812 308.4095  81.0990 15.21284146407254
2015-049G               
1 40905U 15049G   23029.90539336  .00007684  00000+0  37511-3 0  9995
2 40905  97.5222  32.8931 0012770 312.4700  92.1689 15.18492580406959
XW-2C                   
1 40906U 15049H   23029.87294545  .00012336  00000+0  53783-3 0  9991
2 40906  97.4969  36.9398 0010687 291.5986 153.1061 15.22270823407320
XW-2D                   
1 40907U 15049J   23029.90214479  .00014304  00000+0  60227-3 0  9992
2 40907  97.4949  37.2032 0009944 285.4410 160.3529 15.23427003407397
LILACSAT-2              
1 40908U 15049K   23029.93242229  .00006629  00000+0  33280-3 0  9990
2 40908  97.5240  33.5952 0013143 317.0675  67.2122 15.17562204406810
XW-2E                   
1 40909U 15049L   23029.91536784  .00023195  00000+0  81273-3 0  9993
2 40909  97.4612  42.4425 0008428 251.5183 195.0233 15.29444145407947
XW-2F                   
1 40910U 15049M   23029.85789267  .00023106  00000+0  82370-3 0  9995
2 40910  97.4708  41.5816 0009103 252.4148 191.5358 15.28874913407691
XW-2B                   
1 40911U 15049N   23029.88047184  .00014190  00000+0  60034-3 0  9990
2 40911  97.4939  37.6948 0009719 287.2900 157.1347 15.23269447407270
KAITUO 1B               
1 40912U 15049P   23029.87447089  .00026956  00000+0  84730-3 0  9990
2 40912  97.4298  45.9804 0009585 207.3770 236.5675 15.32910636408349
LAPAN-A2                
1 40931U 15052B   23029.40714785  .00001449  00000+0  11163-3 0  9994
2 40931   5.9952 357.0077 0012529 128.7395 231.3820 14.77004751396803
E-ST@R-II               
1 41459U 16025D   23029.76293718  .00032004  00000+0  11709-2 0  9994
2 41459  98.1921 217.9329 0126716 217.8177 141.4011 15.20668159371796
AAUSAT 4                
1 41460U 16025E   23029.62143677  .00060193  00000+0  16525-2 0  9990
2 41460  98.1733 226.6806 0096635 185.0283 216.7408 15.32378837372393
NUSAT-1 (FRESCO)        
1 41557U 16033B   23029.87046507  .00035392  00000+0  79117-3 0  9997
2 41557  97.3865 134.0941 0008967 286.7846 221.0065 15.43382302372183
BEESAT-4                
1 41619U 16040W   23029.87525710  .00030234  00000+0  74020-3 0  9990
2 41619  97.1854  80.2132 0007898  30.9330 329.2380 15.40685721355451
